[{"OBJECT_NAME":"STARLINK-2753","OBJECT_ID":"2021-044BL","EPOCH":"2026-03-09T12:35:28.424256","MEAN_MOTION":15.29842639,"ECCENTRICITY":0.00013911,"INCLINATION":53.1589,"RA_OF_ASC_NODE":89.2579,"ARG_OF_PERICENTER":119.4639,"MEAN_ANOMALY":240.65,"EPHEMERIS_TYPE":0,"CLASSIFICATION_TYPE":"U","NORAD_CAT_ID":48696,"ELEMENT_SET_NO":999,"REV_AT_EPOCH":26415,"BSTAR":0.0020258361,"MEAN_MOTION_DOT":0.00059459,"MEAN_MOTION_DDOT":0},{"OBJECT_NAME":"COSMOS 1782","OBJECT_ID":"1986-074A","EPOCH":"2026-03-09T22:40:22.374624","MEAN_MOTION":15.33314157,"ECCENTRICITY":0.00054418,"INCLINATION":82.5242,"RA_OF_ASC_NODE":238.1482,"ARG_OF_PERICENTER":197.7479,"MEAN_ANOMALY":162.3574,"EPHEMERIS_TYPE":0,"CLASSIFICATION_TYPE":"U","NORAD_CAT_ID":16986,"ELEMENT_SET_NO":999,"REV_AT_EPOCH":13134,"BSTAR":0.00042191031,"MEAN_MOTION_DOT":0.00013623,"MEAN_MOTION_DDOT":0}]
